STARLINK-30427          
1 57865U 23144B   26067.67654380  .00000036  00000+0  10830-4 0  9999
2 57865  43.0007 290.8198 0001476 234.3471 125.7243 15.27578133137441
COSMOS 2588             
1 64095U 25109A   26068.81179522  .00009169  00000+0  32611-3 0  9998
2 64095  72.9704  73.5401 0005019 308.6780  51.3966 15.29122656 44425
